GSAT0104 (GALILEO-FM4)  
1 38858U 12055B   17343.57895469  .00000063  00000-0  00000-0 0  9995
2 38858  54.9048 187.1786 0000629 179.9985 180.0621  1.70473827 32111
